S-NET D                 
1 43186U 18014G   26130.32307817  .00002878  00000+0  15187-3 0  9998
2 43186  97.5388  35.3554 0009397 140.0294 220.1632 15.16313878453020
S-NET B                 
1 43187U 18014H   26130.26780085  .00003229  00000+0  17011-3 0  9993
2 43187  97.5392  35.2861 0010083 136.8709 223.3316 15.16283976453012
S-NET A                 
1 43188U 18014J   26130.25615285  .00002880  00000+0  15194-3 0  9994
2 43188  97.5403  35.4761 0009978 137.3791 222.8217 15.16320359453016
S-NET C                 
1 43189U 18014K   26130.27147143  .00003353  00000+0  17648-3 0  9992
2 43189  97.5421  35.5602 0011480 131.9298 228.2915 15.16275074451561
PAZ                     
1 43215U 18020A   26129.83752356  .00001369  00000+0  68374-4 0  9995
2 43215  97.4460 137.7674 0001681  88.0355 272.1072 15.19158242455189
GOES 17                 
1 43226U 18022A   26130.45109476 -.00000173  00000+0  00000+0 0  9998
2 43226   0.8409  86.2293 0000704 328.3644 246.5708  1.00272230 30047
LKW-4                   
1 43236U 18025A   26130.44386816  .00026962  00000+0  34211-3 0  9994
2 43236  97.6335 298.4569 0003251  92.7578 267.4050 15.59411593454140
ZHUHAI-1 OVS-02         
1 43440U 18040B   26130.49607316  .00004636  00000+0  19112-3 0  9991
2 43440  97.0419 149.9716 0005007  55.5411 304.6300 15.24520558446970
ZHUHAI-1 OHS-02         
1 43441U 18040C   26130.50171620  .00004936  00000+0  19829-3 0  9996
2 43441  97.0407 156.8791 0009587  18.1814 341.9766 15.25330482108530
GAOFEN-6                
1 43484U 18048A   26130.52969192  .00000494  00000+0  77800-4 0  9991
2 43484  97.7773 194.5892 0010759 301.3729  58.6428 14.76586877427836
LUOJIA-1 01             
1 43485U 18048B   26130.49661057  .00001628  00000+0  18715-3 0  9996
2 43485  97.8095 209.2927 0007712 240.8647 119.1798 14.87142631428617
PAKTES 1A               
1 43529U 18056A   26130.48970786  .00001785  00000+0  15247-3 0  9996
2 43529  98.1222 285.3855 0021435 234.7420 125.1796 14.98894442426277
PRSS-1                  
1 43530U 18056B   26130.51388764  .00000479  00000+0  66935-4 0  9991
2 43530  97.7829 199.4250 0001770  94.0348 266.1068 14.81929520422853
HAIYANG-1C              
1 43609U 18068A   26130.50123300  .00000267  00000+0  11099-3 0  9998
2 43609  98.5193 203.3512 0010352 200.4032 159.6741 14.34167864401683
SSTL S1-4               
1 43618U 18071A   26130.56946041  .00000133  00000+0  16656-4 0  9990
2 43618  97.5073   3.7382 0001262  56.4007 303.7335 14.96196836417314
HAIYANG-2B              
1 43655U 18081A   26130.51540152 -.00000092  00000+0 -46868-4 0  9994
2 43655  99.3305 139.8393 0001768  54.3304 305.8013 13.79305394379734
CFOSAT                  
1 43662U 18083A   26130.54717610  .00002371  00000+0  12515-3 0  9993
2 43662  97.3617 136.1853 0002028  64.0622 296.0820 15.16467573416738
TEN-KOH                 
1 43677U 18084G   26130.50508707  .00000888  00000+0  71384-4 0  9992
2 43677  98.0773 321.2870 0007933 240.3284 119.7150 15.02772875410509
DIWATA-2B               
1 43678U 18084H   26130.48883851  .00002029  00000+0  16706-3 0  9991
2 43678  98.1098 325.0831 0012150 301.3201  58.6832 15.00264233410560
STARS-AO                
1 43679U 18084J   26130.53748987  .00004213  00000+0  21930-3 0  9990
2 43679  98.0548 342.1933 0000951 330.8470  29.2708 15.16631972411768
AUTCUBE 2               
1 43681U 18084K   26130.52353506  .00002721  00000+0  17253-3 0  9996
2 43681  98.0747 334.7028 0009382 162.4955 197.6597 15.09827447411243
METOP-C                 
1 43689U 18087A   26130.48103097  .00000067  00000+0  50280-4 0  9999
2 43689  98.6665 190.7691 0000248  86.1616 273.9589 14.21501607389478
ES'HAIL 2               
1 43700U 18090A   26130.47388817  .00000154  00000+0  00000+0 0  9998
2 43700   0.0027  85.4161 0001659 357.3693 341.9164  1.00273446 27292
MOHAMMED VI-B           
1 43717U 18095A   26130.51247633  .00001037  00000+0  15415-3 0  9997
2 43717  97.9559 203.3539 0001368  76.2842 283.8520 14.77070312402624
HYSIS                   
1 43719U 18096A   26130.51910168  .00000592  00000+0  88000-4 0  9996
2 43719  97.9850 197.5587 0000791  90.0136 270.1166 14.78615485401852
COSMOS 2530 (RODNIK-S *)
1 43751U 18097A   26130.54293385 -.00000004  00000+0 -10463-3 0  9998
2 43751  82.5140 245.6408 0020747 117.7972 242.5214 12.42880309337612
COSMOS 2531 (RODNIK-S *)
1 43752U 18097B   26130.56614287  .00000031  00000+0  15366-3 0  9994
2 43752  82.5185 246.6723 0017785 135.5259 224.7252 12.42912009337636
COSMOS 2532 (RODNIK-S *)
1 43753U 18097C   26130.51382549 -.00000028  00000+0 -27425-3 0  9990
2 43753  82.5130 245.5076 0019120 137.7848 222.4708 12.42908501337597
MINXSS-2                
1 43758U 18099A   26130.47613834  .00020314  00000+0  43980-3 0  9998
2 43758  97.4547 205.7300 0007717  52.6367 307.5583 15.44457387408307
SIRION PATHFINDER-2     
1 43759U 18099B   26130.38611376  .00002736  00000+0  15324-3 0  9997
2 43759  97.4283 180.3465 0010403  75.4504 284.7881 15.14199849406901
