OBJECT_NAME,OBJECT_ID,EPOCH,MEAN_MOTION,ECCENTRICITY,INCLINATION,RA_OF_ASC_NODE,ARG_OF_PERICENTER,MEAN_ANOMALY,EPHEMERIS_TYPE,CLASSIFICATION_TYPE,NORAD_CAT_ID,ELEMENT_SET_NO,REV_AT_EPOCH,BSTAR,MEAN_MOTION_DOT,MEAN_MOTION_DDOT
S-NET D,2018-014G,2026-05-10T07:45:13.953888,15.16313878,.0009397,97.5388,35.3554,140.0294,220.1632,0,U,43186,999,45302,.15187E-3,.2878E-4,0
S-NET B,2018-014H,2026-05-10T06:25:37.993440,15.16283976,.00100837,97.5392,35.2861,136.8709,223.3316,0,U,43187,999,45301,.17010905E-3,.3229E-4,0
S-NET A,2018-014J,2026-05-10T06:08:51.606240,15.16320359,.00099789,97.5403,35.4761,137.3791,222.8217,0,U,43188,999,45301,.15193831E-3,.288E-4,0
S-NET C,2018-014K,2026-05-10T06:30:55.131552,15.16275074,.00114801,97.5421,35.5602,131.9298,228.2915,0,U,43189,999,45156,.17647617E-3,.3353E-4,0
PAZ,2018-020A,2026-05-09T20:06:02.035584,15.19158242,.00016819,97.4460,137.7674,88.0355,272.1072,0,U,43215,999,45518,.68374436E-4,.1369E-4,0
GOES 17,2018-022A,2026-05-10T10:49:34.587264,1.00272230,.0000704,0.8409,86.2293,328.3644,246.5708,0,U,43226,999,3004,0,-.173E-5,0
LKW-4,2018-025A,2026-05-10T10:39:10.209024,15.59411593,.0003251,97.6335,298.4569,92.7578,267.4050,0,U,43236,999,45414,.34211E-3,.26962E-3,0
ZHUHAI-1 OVS-02,2018-040B,2026-05-10T11:54:20.721024,15.24520558,.0005007,97.0419,149.9716,55.5411,304.6300,0,U,43440,999,44697,.19112E-3,.4636E-4,0
ZHUHAI-1 OHS-02,2018-040C,2026-05-10T12:02:28.279680,15.25330482,.0009587,97.0407,156.8791,18.1814,341.9766,0,U,43441,999,10853,.19829E-3,.4936E-4,0
GAOFEN-6,2018-048A,2026-05-10T12:42:45.381888,14.76586877,.0010759,97.7773,194.5892,301.3729,58.6428,0,U,43484,999,42783,.778E-4,.494E-5,0
LUOJIA-1 01,2018-048B,2026-05-10T11:55:07.153248,14.87142631,.0007712,97.8095,209.2927,240.8647,119.1798,0,U,43485,999,42861,.18715E-3,.1628E-4,0
PAKTES 1A,2018-056A,2026-05-10T11:45:10.759104,14.98894442,.0021435,98.1222,285.3855,234.7420,125.1796,0,U,43529,999,42627,.15247E-3,.1785E-4,0
PRSS-1,2018-056B,2026-05-10T12:19:59.892096,14.81929520,.000177,97.7829,199.4250,94.0348,266.1068,0,U,43530,999,42285,.66935E-4,.479E-5,0
HAIYANG-1C,2018-068A,2026-05-10T12:01:46.531200,14.34167864,.0010352,98.5193,203.3512,200.4032,159.6741,0,U,43609,999,40168,.11099E-3,.267E-5,0
SSTL S1-4,2018-071A,2026-05-10T13:40:01.379424,14.96196836,.0001262,97.5073,3.7382,56.4007,303.7335,0,U,43618,999,41731,.16656E-4,.133E-5,0
HAIYANG-2B,2018-081A,2026-05-10T12:22:10.691328,13.79305394,.0001768,99.3305,139.8393,54.3304,305.8013,0,U,43655,999,37973,-.46868E-4,-.92E-6,0
CFOSAT,2018-083A,2026-05-10T13:07:56.015040,15.16467573,.0002028,97.3617,136.1853,64.0622,296.0820,0,U,43662,999,41673,.12515E-3,.2371E-4,0
TEN-KOH,2018-084G,2026-05-10T12:07:19.522848,15.02772875,.0007933,98.0773,321.2870,240.3284,119.7150,0,U,43677,999,41050,.71384E-4,.888E-5,0
DIWATA-2B,2018-084H,2026-05-10T11:43:55.647264,15.00264233,.001215,98.1098,325.0831,301.3201,58.6832,0,U,43678,999,41056,.16706E-3,.2029E-4,0
STARS-AO,2018-084J,2026-05-10T12:53:59.124768,15.16631972,.0000951,98.0548,342.1933,330.8470,29.2708,0,U,43679,999,41176,.2193E-3,.4213E-4,0
AUTCUBE 2,2018-084K,2026-05-10T12:33:53.429184,15.09827447,.0009382,98.0747,334.7028,162.4955,197.6597,0,U,43681,999,41124,.17253E-3,.2721E-4,0
METOP-C,2018-087A,2026-05-10T11:32:41.075808,14.21501607,.0000248,98.6665,190.7691,86.1616,273.9589,0,U,43689,999,38947,.5028E-4,.67E-6,0
ES'HAIL 2,2018-090A,2026-05-10T11:22:23.937888,1.00273446,.0001659,0.0027,85.4161,357.3693,341.9164,0,U,43700,999,2729,0,.154E-5,0
MOHAMMED VI-B,2018-095A,2026-05-10T12:17:57.954912,14.77070312,.0001368,97.9559,203.3539,76.2842,283.8520,0,U,43717,999,40262,.15415E-3,.1037E-4,0
HYSIS,2018-096A,2026-05-10T12:27:30.385152,14.78615485,.0000791,97.9850,197.5587,90.0136,270.1166,0,U,43719,999,40185,.88E-4,.592E-5,0
COSMOS 2530 (RODNIK-S 16),2018-097A,2026-05-10T13:01:49.484640,12.42880309,.0020747,82.5140,245.6408,117.7972,242.5214,0,U,43751,999,33761,-.10463E-3,-.4E-7,0
COSMOS 2531 (RODNIK-S 17),2018-097B,2026-05-10T13:35:14.743968,12.42912009,.0017785,82.5185,246.6723,135.5259,224.7252,0,U,43752,999,33763,.15366E-3,.31E-6,0
COSMOS 2532 (RODNIK-S 18),2018-097C,2026-05-10T12:19:54.522336,12.42908501,.001912,82.5130,245.5076,137.7848,222.4708,0,U,43753,999,33759,-.27425E-3,-.28E-6,0
MINXSS-2,2018-099A,2026-05-10T11:25:38.352576,15.44457387,.0007717,97.4547,205.7300,52.6367,307.5583,0,U,43758,999,40830,.4398E-3,.20314E-3,0
SIRION PATHFINDER-2,2018-099B,2026-05-10T09:16:00.228864,15.14199849,.0010403,97.4283,180.3465,75.4504,284.7881,0,U,43759,999,40690,.15324E-3,.2736E-4,0
